OBJECT_NAME,OBJECT_ID,EPOCH,MEAN_MOTION,ECCENTRICITY,INCLINATION,RA_OF_ASC_NODE,ARG_OF_PERICENTER,MEAN_ANOMALY,EPHEMERIS_TYPE,CLASSIFICATION_TYPE,NORAD_CAT_ID,ELEMENT_SET_NO,REV_AT_EPOCH,BSTAR,MEAN_MOTION_DOT,MEAN_MOTION_DDOT
TIANMU-1 21,2023-208C,2024-01-20T20:19:11.788608,15.14315932,.0010392,97.3966,137.3089,168.7284,191.4183,0,U,58662,999,372,.46043E-3,.8383E-4,0
TIANMU-1 22,2023-208D,2024-01-20T20:11:40.046208,15.14629846,.0010761,97.3980,137.3205,177.4794,182.6495,0,U,58663,999,372,.42822E-3,.7861E-4,0
TIANMU-1 15,2024-004A,2024-01-20T18:50:54.004128,15.13802726,.0010725,97.4567,204.8474,199.5981,160.4840,0,U,58700,999,231,.44092E-3,.7909E-4,0
TIANMU-1 16,2024-004B,2024-01-20T02:53:23.794656,15.14265106,.0010924,97.4494,204.1903,208.5387,151.5248,0,U,58701,999,221,.39764E-3,.7219E-4,0
TIANMU-1 17,2024-004C,2024-01-20T18:42:49.388256,15.14430044,.0010208,97.4539,204.8487,208.2027,151.8653,0,U,58702,999,230,.43356E-3,.7913E-4,0
TIANMU-1 18,2024-004D,2024-01-20T20:12:15.099552,15.14824359,.0010798,97.4555,204.9217,217.7126,142.3350,0,U,58703,999,231,.41116E-3,.7586E-4,0
